[{"OBJECT_NAME":"STARLINK-34798","OBJECT_ID":"2025-165H","EPOCH":"2026-03-09T18:05:23.973216","MEAN_MOTION":15.05644548,"ECCENTRICITY":0.00011549,"INCLINATION":97.6023,"RA_OF_ASC_NODE":147.3485,"ARG_OF_PERICENTER":92.2896,"MEAN_ANOMALY":267.8463,"EPHEMERIS_TYPE":0,"CLASSIFICATION_TYPE":"U","NORAD_CAT_ID":65063,"ELEMENT_SET_NO":999,"REV_AT_EPOCH":3480,"BSTAR":0.00048937741,"MEAN_MOTION_DOT":7.006e-5,"MEAN_MOTION_DDOT":0},{"OBJECT_NAME":"RAPIDEYE 4","OBJECT_ID":"2008-040E","EPOCH":"2026-03-09T22:51:05.848992","MEAN_MOTION":15.03765217,"ECCENTRICITY":0.00096509,"INCLINATION":97.4015,"RA_OF_ASC_NODE":97.7474,"ARG_OF_PERICENTER":35.5595,"MEAN_ANOMALY":324.6273,"EPHEMERIS_TYPE":0,"CLASSIFICATION_TYPE":"U","NORAD_CAT_ID":33316,"ELEMENT_SET_NO":999,"REV_AT_EPOCH":95086,"BSTAR":0.00022327721,"MEAN_MOTION_DOT":3.01e-5,"MEAN_MOTION_DDOT":0}]
